     2              NAVIGATION DATA                         RINEX VERSION / TYPE
CCRINEXN V1.6.0 UX  CDDIS               29-DEC-22 06:26     PGM / RUN BY / DATE 
IGS BROADCAST EPHEMERIS FILE                                COMMENT             
    0.2049D-07  0.0000D+00 -0.5960D-07  0.1192D-06          ION ALPHA           
    0.1413D+06 -0.1966D+06  0.0000D+00  0.1966D+06          ION BETA            
   -0.651925802231D-08-0.106581410364D-13   589824     2242 DELTA-UTC: A0,A1,T,W
    18                                                      LEAP SECONDS        
                                                            END OF HEADER       
22 22 12 29  2  0  0.0 0.394432339817D-03 0.795807864051D-11 0.000000000000D+00
    0.260000000000D+02-0.732187500000D+02 0.424196240905D-08 0.274500073810D+01
   -0.376813113689D-05 0.136758321896D-01 0.956654548645D-05 0.515377167129D+04
    0.352800000000D+06 0.931322574615D-07 0.899925508184D+00-0.100582838059D-06
    0.962063234481D+00 0.192781250000D+03-0.184122220067D+01-0.767353391920D-08
   -0.489306095849D-10 0.100000000000D+01 0.224200000000D+04 0.000000000000D+00
    0.200000000000D+01 0.000000000000D+00-0.838190317154D-08 0.260000000000D+02
    0.345618000000D+06 0.400000000000D+01 0.000000000000D+00 0.000000000000D+00
23 22 12 29  2  0  0.0 0.104447826743D-05 0.909494701773D-12 0.000000000000D+00
    0.380000000000D+02-0.198750000000D+02 0.453411743562D-08-0.911371323645D-01
   -0.118464231491D-05 0.295365112834D-02 0.453740358353D-05 0.515363944244D+04
    0.352800000000D+06 0.540167093277D-07-0.258581198191D+00 0.409781932831D-07
    0.972005683641D+00 0.299187500000D+03 0.313250201774D+01-0.828070206734D-08
   -0.714315468392D-12 0.100000000000D+01 0.224200000000D+04 0.000000000000D+00
    0.200000000000D+01 0.000000000000D+00-0.838190317154D-08 0.380000000000D+02
    0.345618000000D+06 0.400000000000D+01 0.000000000000D+00 0.000000000000D+00
24 22 12 29  2  0  0.0-0.551482662559D-05-0.170530256582D-10 0.000000000000D+00
    0.610000000000D+02 0.141250000000D+02 0.510878422994D-08 0.105393725477D+01
    0.808387994766D-06 0.136173353531D-01 0.109374523163D-04 0.515367004394D+04
    0.352800000000D+06-0.130385160446D-06 0.177973855675D+01 0.109896063805D-06
    0.933643827156D+00 0.155531250000D+03 0.875121512712D+00-0.847749597888D-08
    0.140362989539D-09 0.100000000000D+01 0.224200000000D+04 0.000000000000D+00
    0.200000000000D+01 0.000000000000D+00 0.279396772385D-08 0.610000000000D+02
    0.346309000000D+06 0.400000000000D+01 0.000000000000D+00 0.000000000000D+00
25 22 12 29  2  0  0.0 0.406363978982D-03 0.352429196937D-11 0.000000000000D+00
    0.180000000000D+02 0.319062500000D+02 0.511521306916D-08-0.706389473328D+00
    0.183843076229D-05 0.110299317166D-01 0.590085983276D-05 0.515356260300D+04
    0.352800000000D+06-0.130385160446D-07 0.290156023992D+01 0.206753611565D-06
    0.954689926942D+00 0.265843750000D+03 0.101204433537D+01-0.852499795753D-08
   -0.678599694973D-11 0.100000000000D+01 0.224200000000D+04 0.000000000000D+00
    0.200000000000D+01 0.000000000000D+00 0.558793500000D-08 0.180000000000D+02
    0.348600000000D+06 0.400000000000D+01 0.000000000000D+00 0.000000000000D+00
29 22 12 29  2  0  0.0-0.577075406909D-03-0.238742359215D-11 0.000000000000D+00
    0.630000000000D+02-0.550000000000D+01 0.417338812408D-08 0.295741477988D+01
   -0.212341547012D-06 0.210077478550D-02 0.904686748982D-05 0.515360404968D+04
    0.352800000000D+06 0.111758708954D-07-0.224888356376D+01-0.111758708954D-07
    0.978474485024D+00 0.216500000000D+03 0.244768129216D+01-0.788782855972D-08
   -0.297869550319D-09 0.100000000000D+01 0.224200000000D+04 0.000000000000D+00
    0.200000000000D+01 0.000000000000D+00-0.102445483208D-07 0.630000000000D+02
    0.345618000000D+06 0.400000000000D+01 0.000000000000D+00 0.000000000000D+00
30 22 12 29  2  0  0.0-0.534508842975D-03 0.795807864051D-12 0.000000000000D+00
    0.390000000000D+02 0.376562500000D+02 0.510985570314D-08 0.324536028857D-01
    0.197440385818D-05 0.599948049057D-02 0.980682671070D-05 0.515366300011D+04
    0.352800000000D+06 0.782310962677D-07 0.187625514318D+01 0.121071934700D-06
    0.935243370080D+00 0.176312500000D+03-0.266671240938D+01-0.841820779500D-08
    0.320370487574D-09 0.100000000000D+01 0.224200000000D+04 0.000000000000D+00
    0.200000000000D+01 0.000000000000D+00 0.372529029846D-08 0.390000000000D+02
    0.345681000000D+06 0.400000000000D+01 0.000000000000D+00 0.000000000000D+00
31 22 12 29  2  0  0.0-0.204683747143D-03-0.113686837722D-11 0.000000000000D+00
    0.790000000000D+02 0.269062500000D+02 0.466626579727D-08-0.413144426861D+00
    0.162236392498D-05 0.107760230312D-01 0.924244523048D-05 0.515363479805D+04
    0.352800000000D+06 0.119209289551D-06 0.188724650314D+01 0.707805156708D-07
    0.954243638912D+00 0.196500000000D+03 0.486491919473D+00-0.822319967213D-08
    0.282154610015D-09 0.100000000000D+01 0.224200000000D+04 0.000000000000D+00
    0.200000000000D+01 0.000000000000D+00-0.135041773319D-07 0.790000000000D+02
    0.345618000000D+06 0.400000000000D+01 0.000000000000D+00 0.000000000000D+00
32 22 12 29  2  0  0.0-0.345728825778D-03-0.128466126625D-10 0.000000000000D+00
    0.740000000000D+02-0.817812500000D+02 0.440232623170D-08-0.255861507963D+01
   -0.417232513428D-05 0.638535257894D-02 0.894069671631D-05 0.515369122124D+04
    0.352800000000D+06-0.167638063431D-07 0.808504806705D+00-0.838190317154D-07
    0.959053514600D+00 0.205781250000D+03-0.228741808846D+01-0.788961434839D-08
   -0.196436753808D-10 0.100000000000D+01 0.224200000000D+04 0.000000000000D+00
    0.200000000000D+01 0.000000000000D+00 0.465661287308D-09 0.740000000000D+02
    0.345618000000D+06 0.400000000000D+01 0.000000000000D+00 0.000000000000D+00
 4 22 12 29  3 29 36.0-0.595403835177D-04 0.738964445190D-11 0.000000000000D+00
    0.123000000000D+03-0.640000000000D+02 0.441196949052D-08-0.287083714331D+01
   -0.336207449436D-05 0.225407048129D-02 0.929646193981D-05 0.515372961998D+04
    0.358176000000D+06-0.465661287308D-07 0.851418446482D+00 0.111758708954D-07
    0.962133937312D+00 0.201687500000D+03-0.309964417694D+01-0.795961726429D-08
   -0.903609067516D-10 0.100000000000D+01 0.224200000000D+04 0.000000000000D+00
    0.200000000000D+01 0.000000000000D+00-0.465661287308D-08 0.891000000000D+03
    0.351018000000D+06 0.400000000000D+01 0.000000000000D+00 0.000000000000D+00
23 22 12 29  3 44 32.0 0.105053186417D-05 0.909494701773D-12 0.000000000000D+00
    0.390000000000D+02-0.179062500000D+02 0.460340603605D-08 0.823654353310D+00
   -0.951811671257D-06 0.295383553021D-02 0.435858964920D-05 0.515363989258D+04
    0.359072000000D+06 0.111758708954D-07-0.258633411200D+00-0.186264514923D-08
    0.972005515405D+00 0.299718750000D+03 0.313255327546D+01-0.833106130786D-08
    0.114290474943D-10 0.100000000000D+01 0.224200000000D+04 0.000000000000D+00
    0.200000000000D+01 0.000000000000D+00-0.838190300000D-08 0.390000000000D+02
    0.351960000000D+06 0.400000000000D+01 0.000000000000D+00 0.000000000000D+00
 1 22 12 29  3 59 44.0 0.231435522437D-03-0.500222085975D-11 0.000000000000D+00
    0.220000000000D+02 0.373125000000D+02 0.386694678814D-08 0.181554964002D+01
    0.185333192349D-05 0.121521455003D-01 0.786595046520D-05 0.515365876961D+04
    0.359984000000D+06-0.309199094772D-06-0.126148179524D+01-0.165775418282D-06
    0.989039234666D+00 0.244125000000D+03 0.938760353880D+00-0.784675542029D-08
    0.196079596074D-09 0.100000000000D+01 0.224200000000D+04 0.000000000000D+00
    0.200000000000D+01 0.000000000000D+00 0.465661287308D-08 0.220000000000D+02
    0.356928000000D+06 0.400000000000D+01 0.000000000000D+00 0.000000000000D+00
 2 22 12 29  3 59 44.0-0.630465336144D-03 0.216004991671D-11 0.000000000000D+00
    0.500000000000D+01 0.371875000000D+02 0.448661545697D-08 0.854229958518D+00
    0.173598527908D-05 0.200945759425D-01 0.925548374653D-05 0.515369451904D+04
    0.359984000000D+06-0.216066837311D-06-0.135728329269D+01-0.286847352982D-06
    0.966776753607D+00 0.209656250000D+03-0.134763203005D+01-0.841570769086D-08
    0.157149403046D-09 0.100000000000D+01 0.224200000000D+04 0.000000000000D+00
    0.200000000000D+01 0.000000000000D+00-0.176951289177D-07 0.500000000000D+01
    0.356802000000D+06 0.400000000000D+01 0.000000000000D+00 0.000000000000D+00
10 22 12 29  3 59 44.0-0.181058421731D-04-0.159161572810D-11 0.000000000000D+00
    0.400000000000D+02-0.197187500000D+02 0.450983070969D-08-0.233373797207D+00
   -0.103935599327D-05 0.836037169211D-02 0.454857945442D-05 0.515368133736D+04
    0.359984000000D+06-0.242143869400D-07-0.232192419175D+00 0.987201929092D-07
    0.976904248737D+00 0.298687500000D+03-0.247249000262D+01-0.836999150088D-08
    0.714315468392D-12 0.100000000000D+01 0.224200000000D+04 0.000000000000D+00
    0.200000000000D+01 0.000000000000D+00 0.232830643654D-08 0.400000000000D+02
    0.353742000000D+06 0.400000000000D+01 0.000000000000D+00 0.000000000000D+00
13 22 12 29  3 59 44.0 0.450076535344D-03 0.648014975013D-11 0.000000000000D+00
    0.570000000000D+02-0.639375000000D+02 0.414231540121D-08-0.271514193350D+01
   -0.328570604324D-05 0.673318561166D-02 0.106990337372D-04 0.515367590904D+04
    0.359984000000D+06 0.745058059692D-07 0.953806981272D+00-0.335276126862D-07
    0.969221795887D+00 0.175875000000D+03 0.950607367310D+00-0.778139555493D-08
   -0.101075638777D-09 0.100000000000D+01 0.224200000000D+04 0.000000000000D+00
    0.200000000000D+01 0.000000000000D+00-0.116415321827D-07 0.570000000000D+02
    0.352825000000D+06 0.400000000000D+01 0.000000000000D+00 0.000000000000D+00
